
# C42 (GNSS)
1 44865U 19090B   26202.96464863 -.00000079  00000+0  00000+0 0  9999
2 44865  56.5915  61.6754 0014231 312.1692 227.7948  1.86231478 44865

# C60 (GNSS)
1 45344U 20017A   26204.85407096 -.00000138  00000+0  00000+0 0  9994
2 45344   2.9370  47.8539 0002131  58.9538 222.2741  1.00272725 23623

# C61 (GNSS)
1 45807U 20040A   26204.84809177 -.00000351  00000+0  00000+0 0  9996
2 45807   2.5351  67.5036 0002259 318.3137 331.6269  1.00272882 22434

# C62 (GNSS)
1 56564U 23066A   26204.85389846 -.00000275  00000+0  00000+0 0  9991
2 56564   0.4541 341.3855 0005190 182.2775 225.3731  1.00270272 11767

# C50 (GNSS)
1 58654U 23207A   26204.27549741 -.00000074  00000+0  00000+0 0  9995
2 58654  55.7853  61.0858 0002153  10.4773 349.5911  1.86229831 17510

# E30 (GNSS)
1 40890U 15045B   26204.23883850  .00000075  00000+0  00000+0 0  9997
2 40890  54.9377 220.6082 0002056 330.6429  29.3940  1.70473660 67653

# E07 (GNSS)
1 41859U 16069A   26204.11386333 -.00000048  00000+0  00000+0 0  9992
2 41859  55.5193 100.0917 0004370 341.3874  18.6303  1.70473642 60011

# E08 (GNSS)
1 41175U 15079B   26202.86782092 -.00000047  00000+0  00000+0 0  9994
2 41175  55.8455 100.3069 0004206   2.1198 357.9162  1.70473606 65787

# E09 (GNSS)
1 41174U 15079A   26200.88772413 -.00000039  00000+0  00000+0 0  9990
2 41174  55.8457 100.3644 0004618 358.4074   1.6290  1.70473671 65332

# E01 (GNSS)
1 41550U 16030B   26204.42178794  .00000076  00000+0  00000+0 0  9992
2 41550  55.0870 220.6957 0004720 247.6947 112.3044  1.70473980 63288

# E02 (GNSS)
1 41549U 16030A   26204.75113949  .00000077  00000+0  00000+0 0  9998
2 41549  55.0884 220.6884 0003484 318.9701  41.0537  1.70473768 63296

# E03 (GNSS)
1 41860U 16069B   26203.96725933 -.00000048  00000+0  00000+0 0  9999
2 41860  55.5169 100.0907 0004376  16.3980 343.6497  1.70473873 60266

# E04 (GNSS)
1 41861U 16069C   26203.16122456 -.00000048  00000+0  00000+0 0  9993
2 41861  55.5184 100.1209 0003814 320.5981  39.4080  1.70474392 60116

# E05 (GNSS)
1 41862U 16069D   26202.13435722 -.00000045  00000+0  00000+0 0  9990
2 41862  55.5164 100.1420 0003141 335.1519  24.8684  1.70473784 60226

# E21 (GNSS)
1 43055U 17079A   26202.62380459  .00000067  00000+0  00000+0 0  9991
2 43055  55.0665 220.5584 0003765 269.3113  90.6885  1.70474444 53579

# E25 (GNSS)
1 43056U 17079B   26204.08810596  .00000074  00000+0  00000+0 0  9992
2 43056  55.0662 220.5182 0004973 278.6022  81.3894  1.70474558 53613

# E27 (GNSS)
1 43057U 17079C   26204.30891541  .00000075  00000+0  00000+0 0  9998
2 43057  55.0645 220.5097 0004235 291.1751  68.8281  1.70474489 53602

# E31 (GNSS)
1 43058U 17079D   26203.35582479  .00000071  00000+0  00000+0 0  9996
2 43058  55.0649 220.5336 0005428 275.3453  84.6382  1.70474503 53617

# E36 (GNSS)
1 43566U 18060C   26204.28711375 -.00000106  00000+0  00000+0 0  9993
2 43566  57.1589 340.8118 0001921 290.7871  69.1867  1.70476344 49807

# E13 (GNSS)
1 43567U 18060D   26203.92155013 -.00000106  00000+0  00000+0 0  9995
2 43567  57.1584 340.8214 0002105 282.3928  77.5781  1.70476338 49783

# E15 (GNSS)
1 43564U 18060A   26203.84656221 -.00000106  00000+0  00000+0 0  9990
2 43564  57.1563 340.8185 0002811 280.1665  79.7963  1.70476368 49770

# E33 (GNSS)
1 43565U 18060B   26202.89310238 -.00000107  00000+0  00000+0 0  9991
2 43565  57.1601 340.8479 0003036 234.2214 125.7449  1.70476084 49800

# E34 (GNSS)
1 49809U 21116A   26204.35640611 -.00000106  00000+0  00000+0 0  9997
2 49809  57.1472 340.6987 0002573 195.8293 161.8890  1.70476582 28798

# E10 (GNSS)
1 49810U 21116B   26204.18061353 -.00000106  00000+0  00000+0 0  9990
2 49810  57.1469 340.7020 0002038 183.2732 179.1905  1.70476626 28822

# R01 (GNSS)
1 36111U 09070A   26204.24251524 -.00000046  00000+0  00000+0 0  9996
2 36111  65.0327  69.7425 0003079 345.9694 210.8988  2.13103733129190

# R02 (GNSS)
1 39155U 13019A   26204.04299087 -.00000047  00000+0  00000+0 0  9990
2 39155  65.4401  72.4015 0022553 230.4230 129.4454  2.13103192103044

# R03 (GNSS)
1 37867U 11064A   26204.29366720 -.00000045  00000+0  00000+0 0  9990
2 37867  65.2908  71.6526 0021995 235.2718 269.1539  2.13103627114538

# R04 (GNSS)
1 44850U 19088A   26204.16243200 -.00000046  00000+0  00000+0 0  9998
2 44850  65.5856  72.5304 0012036 253.5575 106.3785  2.13102883 51489

# R05 (GNSS)
1 43508U 18053A   26204.21788319 -.00000046  00000+0  00000+0 0  9999
2 43508  65.5980  72.7056 0006388 226.7485 133.2665  2.13102044 63047

# R06 (GNSS)
1 36112U 09070B   26203.13698076 -.00000052  00000+0  00000+0 0  9998
2 36112  65.0178  69.6233 0004394 122.7671  73.0536  2.13101025129176

# R07 (GNSS)
1 37868U 11064B   26203.63180419 -.00000050  00000+0  00000+0 0  9993
2 37868  65.2968  71.7547 0019088 236.1337 300.7696  2.13102887114517

# R08 (GNSS)
1 37869U 11064C   26204.16432013 -.00000046  00000+0  00000+0 0  9998
2 37869  65.3041  71.7587 0024508 250.2945 290.1042  2.13101721114535

# R09 (GNSS)
1 40315U 14075A   26203.02584043  .00000091  00000+0  00000+0 0  9997
2 40315  63.6188 189.1661 0022621 212.4834 147.3802  2.13101382 90595

# R10 (GNSS)
1 32395U 07065C   26204.25276242  .00000091  00000+0  00000+0 0  9992
2 32395  64.3287 190.7719 0017299 353.7357 184.8008  2.13100091144497

# R11 (GNSS)
1 46805U 20075A   26204.54716176  .00000090  00000+0  00000+0 0  9995
2 46805  64.6022 191.2621 0009358 239.5947 120.3197  2.13100077 44687

# R12 (GNSS)
1 44299U 19030A   26204.36418141  .00000091  00000+0  00000+0 0  9991
2 44299  64.3713 191.3984 0013416 275.1477 257.7839  2.13102412 55699

# R13 (GNSS)
1 32393U 07065A   26204.41759829  .00000090  00000+0  00000+0 0  9994
2 32393  64.3201 190.6938 0001260 328.7623 204.0735  2.13101318144543

# R14 (GNSS)
1 42939U 17055A   26204.25583075  .00000090  00000+0  00000+0 0  9991
2 42939  64.0809 190.6566 0010863 240.6109 119.2865  2.13101933 68749

# R15 (GNSS)
1 43687U 18086A   26201.49849141  .00000085  00000+0  00000+0 0  9993
2 43687  64.2975 191.4696 0011976 256.3144 103.5547  2.13101999 59990

# R16 (GNSS)
1 54377U 22161A   26204.37404118  .00000092  00000+0  00000+0 0  9999
2 54377  64.7442 191.5105 0012150 224.6330 135.2765  2.13102088 28404

# R17 (GNSS)
1 41330U 16008A   26204.41821104 -.00000088  00000+0  00000+0 0  9996
2 41330  64.9975 311.7630 0012557 202.1470 157.8201  2.13102761 81398

# R18 (GNSS)
1 39620U 14012A   26204.47110809 -.00000088  00000+0  00000+0 0  9997
2 39620  65.2739 312.7022 0010366 315.8790  44.0582  2.13103261 96018

# R19 (GNSS)
1 54031U 22130A   26202.65390199 -.00000090  00000+0  00000+0 0  9993
2 54031  64.2486 313.3533 0013183 181.8332 178.1821  2.13101809 29428

# R20 (GNSS)
1 32276U 07052B   26202.71222580 -.00000089  00000+0  00000+0 0  9999
2 32276  65.5711 314.9000 0007377 320.6362  37.9836  2.13103057145817

# R21 (GNSS)
1 40001U 14032A   26204.17115103 -.00000089  00000+0  00000+0 0  9994
2 40001  65.2090 312.4566 0008517 191.8913 168.1090  2.13105924 94228

# R22 (GNSS)
1 52984U 22075A   26204.24196424 -.00000090  00000+0  00000+0 0  9998
2 52984  64.2748 313.2153 0011103 270.4489  89.4436  2.13102385 31484

# R23 (GNSS)
1 36402U 10007C   26202.40772837 -.00000088  00000+0  00000+0 0  9998
2 36402  65.3983 313.3083 0001852 154.3387 203.9833  2.13101549127452

# R24 (GNSS)
1 45358U 20018A   26204.35735539 -.00000088  00000+0  00000+0 0  9995
2 45358  64.3311 311.1469 0009943 230.3767 129.5577  2.13102568 49437

# R25 (GNSS)
1 32275U 07052A   26203.10996669 -.00000090  00000+0  00000+0 0  9990
2 32275  65.5549 314.7579 0003748 204.3382 155.6620  2.13104093145801
